[{"OBJECT_NAME":"FLYING LAPTOP","OBJECT_ID":"2017-042G","EPOCH":"2026-03-02T20:13:21.942048","MEAN_MOTION":15.00464126,"ECCENTRICITY":0.0018412,"INCLINATION":97.4246,"RA_OF_ASC_NODE":221.8228,"ARG_OF_PERICENTER":117.795,"MEAN_ANOMALY":242.5143,"EPHEMERIS_TYPE":0,"CLASSIFICATION_TYPE":"U","NORAD_CAT_ID":42831,"ELEMENT_SET_NO":999,"REV_AT_EPOCH":47050,"BSTAR":0.00050945,"MEAN_MOTION_DOT":6.38e-5,"MEAN_MOTION_DDOT":0},{"OBJECT_NAME":"HAWK-A","OBJECT_ID":"2018-099H","EPOCH":"2026-03-02T17:06:11.165472","MEAN_MOTION":15.23092893,"ECCENTRICITY":0.0034504,"INCLINATION":97.4069,"RA_OF_ASC_NODE":115.3721,"ARG_OF_PERICENTER":301.2229,"MEAN_ANOMALY":58.5628,"EPHEMERIS_TYPE":0,"CLASSIFICATION_TYPE":"U","NORAD_CAT_ID":43765,"ELEMENT_SET_NO":999,"REV_AT_EPOCH":39688,"BSTAR":0.00035514,"MEAN_MOTION_DOT":8.442e-5,"MEAN_MOTION_DDOT":0},{"OBJECT_NAME":"HAWK-B","OBJECT_ID":"2018-099AN","EPOCH":"2026-03-02T16:14:38.078304","MEAN_MOTION":15.2140714,"ECCENTRICITY":0.0031806,"INCLINATION":97.412,"RA_OF_ASC_NODE":114.965,"ARG_OF_PERICENTER":319.1981,"MEAN_ANOMALY":40.6873,"EPHEMERIS_TYPE":0,"CLASSIFICATION_TYPE":"U","NORAD_CAT_ID":43794,"ELEMENT_SET_NO":999,"REV_AT_EPOCH":39683,"BSTAR":0.00036248,"MEAN_MOTION_DOT":8.177e-5,"MEAN_MOTION_DDOT":0},{"OBJECT_NAME":"HAWK-C","OBJECT_ID":"2018-099AT","EPOCH":"2026-03-02T17:21:40.734432","MEAN_MOTION":15.26246105,"ECCENTRICITY":0.0040679,"INCLINATION":97.4047,"RA_OF_ASC_NODE":115.7945,"ARG_OF_PERICENTER":302.9962,"MEAN_ANOMALY":56.7369,"EPHEMERIS_TYPE":0,"CLASSIFICATION_TYPE":"U","NORAD_CAT_ID":43799,"ELEMENT_SET_NO":999,"REV_AT_EPOCH":39766,"BSTAR":0.00038218,"MEAN_MOTION_DOT":0.00010067,"MEAN_MOTION_DDOT":0},{"OBJECT_NAME":"SALSAT","OBJECT_ID":"2020-068K","EPOCH":"2026-03-02T12:51:05.084928","MEAN_MOTION":15.28007427,"ECCENTRICITY":0.0008864,"INCLINATION":97.8844,"RA_OF_ASC_NODE":58.2509,"ARG_OF_PERICENTER":326.6723,"MEAN_ANOMALY":33.3956,"EPHEMERIS_TYPE":0,"CLASSIFICATION_TYPE":"U","NORAD_CAT_ID":46495,"ELEMENT_SET_NO":999,"REV_AT_EPOCH":29906,"BSTAR":0.00041124,"MEAN_MOTION_DOT":0.00011172,"MEAN_MOTION_DDOT":0},{"OBJECT_NAME":"HAWK-2C","OBJECT_ID":"2021-006CT","EPOCH":"2026-03-02T16:37:25.414464","MEAN_MOTION":15.3315946,"ECCENTRICITY":0.0006183,"INCLINATION":97.2433,"RA_OF_ASC_NODE":108.1543,"ARG_OF_PERICENTER":210.2299,"MEAN_ANOMALY":149.8588,"EPHEMERIS_TYPE":0,"CLASSIFICATION_TYPE":"U","NORAD_CAT_ID":47502,"ELEMENT_SET_NO":999,"REV_AT_EPOCH":28317,"BSTAR":0.00026142,"MEAN_MOTION_DOT":8.304e-5,"MEAN_MOTION_DDOT":0},{"OBJECT_NAME":"HAWK-2A","OBJECT_ID":"2021-006CW","EPOCH":"2026-03-02T16:42:35.776224","MEAN_MOTION":15.33179969,"ECCENTRICITY":0.0005782,"INCLINATION":97.2474,"RA_OF_ASC_NODE":108.7722,"ARG_OF_PERICENTER":213.3721,"MEAN_ANOMALY":146.7158,"EPHEMERIS_TYPE":0,"CLASSIFICATION_TYPE":"U","NORAD_CAT_ID":47505,"ELEMENT_SET_NO":999,"REV_AT_EPOCH":28317,"BSTAR":0.00045363,"MEAN_MOTION_DOT":0.00014484,"MEAN_MOTION_DDOT":0},{"OBJECT_NAME":"HAWK-2B","OBJECT_ID":"2021-006CZ","EPOCH":"2026-03-02T16:37:54.601248","MEAN_MOTION":15.3315098,"ECCENTRICITY":0.0006326,"INCLINATION":97.2347,"RA_OF_ASC_NODE":107.2797,"ARG_OF_PERICENTER":211.7104,"MEAN_ANOMALY":148.3758,"EPHEMERIS_TYPE":0,"CLASSIFICATION_TYPE":"U","NORAD_CAT_ID":47508,"ELEMENT_SET_NO":999,"REV_AT_EPOCH":28317,"BSTAR":0.0002649,"MEAN_MOTION_DOT":8.413e-5,"MEAN_MOTION_DDOT":0},{"OBJECT_NAME":"HAWK-3B","OBJECT_ID":"2021-059BE","EPOCH":"2026-03-02T11:59:26.367936","MEAN_MOTION":15.6091128,"ECCENTRICITY":0.00054506,"INCLINATION":97.6714,"RA_OF_ASC_NODE":248.7912,"ARG_OF_PERICENTER":5.4749,"MEAN_ANOMALY":354.6566,"EPHEMERIS_TYPE":0,"CLASSIFICATION_TYPE":"U","NORAD_CAT_ID":48931,"ELEMENT_SET_NO":999,"REV_AT_EPOCH":26116,"BSTAR":0.00050900036,"MEAN_MOTION_DOT":0.0004263,"MEAN_MOTION_DDOT":0},{"OBJECT_NAME":"HAWK-3C","OBJECT_ID":"2021-059BX","EPOCH":"2026-03-02T11:59:06.044064","MEAN_MOTION":15.60899717,"ECCENTRICITY":0.00059295,"INCLINATION":97.6863,"RA_OF_ASC_NODE":254.2757,"ARG_OF_PERICENTER":7.2047,"MEAN_ANOMALY":352.9293,"EPHEMERIS_TYPE":0,"CLASSIFICATION_TYPE":"U","NORAD_CAT_ID":48948,"ELEMENT_SET_NO":999,"REV_AT_EPOCH":26116,"BSTAR":0.0004855656,"MEAN_MOTION_DOT":0.00040639,"MEAN_MOTION_DDOT":0},{"OBJECT_NAME":"HAWK-3A","OBJECT_ID":"2021-059CG","EPOCH":"2026-03-02T11:58:51.324096","MEAN_MOTION":15.60902715,"ECCENTRICITY":0.00055469,"INCLINATION":97.6799,"RA_OF_ASC_NODE":251.5704,"ARG_OF_PERICENTER":5.6057,"MEAN_ANOMALY":354.5261,"EPHEMERIS_TYPE":0,"CLASSIFICATION_TYPE":"U","NORAD_CAT_ID":48957,"ELEMENT_SET_NO":999,"REV_AT_EPOCH":26116,"BSTAR":0.00050194517,"MEAN_MOTION_DOT":0.00042021,"MEAN_MOTION_DDOT":0},{"OBJECT_NAME":"HAWK-5C","OBJECT_ID":"2022-057Y","EPOCH":"2026-03-02T09:59:58.570368","MEAN_MOTION":15.47142312,"ECCENTRICITY":0.0005648,"INCLINATION":97.6438,"RA_OF_ASC_NODE":214.6383,"ARG_OF_PERICENTER":99.269,"MEAN_ANOMALY":260.9198,"EPHEMERIS_TYPE":0,"CLASSIFICATION_TYPE":"U","NORAD_CAT_ID":52754,"ELEMENT_SET_NO":999,"REV_AT_EPOCH":20981,"BSTAR":0.0004631,"MEAN_MOTION_DOT":0.00023449,"MEAN_MOTION_DDOT":0},{"OBJECT_NAME":"HAWK-5B","OBJECT_ID":"2022-057AA","EPOCH":"2026-03-02T09:59:47.514624","MEAN_MOTION":15.47145421,"ECCENTRICITY":0.00056309,"INCLINATION":97.6439,"RA_OF_ASC_NODE":212.9781,"ARG_OF_PERICENTER":94.2107,"MEAN_ANOMALY":265.9786,"EPHEMERIS_TYPE":0,"CLASSIFICATION_TYPE":"U","NORAD_CAT_ID":52756,"ELEMENT_SET_NO":999,"REV_AT_EPOCH":20981,"BSTAR":0.00047848607,"MEAN_MOTION_DOT":0.00024236,"MEAN_MOTION_DDOT":0},{"OBJECT_NAME":"HAWK-5A","OBJECT_ID":"2022-057AB","EPOCH":"2026-03-02T16:11:55.562496","MEAN_MOTION":15.47153824,"ECCENTRICITY":0.0006045,"INCLINATION":97.6441,"RA_OF_ASC_NODE":214.0848,"ARG_OF_PERICENTER":95.8438,"MEAN_ANOMALY":264.35,"EPHEMERIS_TYPE":0,"CLASSIFICATION_TYPE":"U","NORAD_CAT_ID":52757,"ELEMENT_SET_NO":999,"REV_AT_EPOCH":20985,"BSTAR":0.00045834,"MEAN_MOTION_DOT":0.00023218,"MEAN_MOTION_DDOT":0},{"OBJECT_NAME":"HAWK-6B","OBJECT_ID":"2023-011A","EPOCH":"2026-03-02T17:12:35.946144","MEAN_MOTION":15.21791377,"ECCENTRICITY":0.0003124,"INCLINATION":40.5117,"RA_OF_ASC_NODE":252.5747,"ARG_OF_PERICENTER":340.1039,"MEAN_ANOMALY":19.9648,"EPHEMERIS_TYPE":0,"CLASSIFICATION_TYPE":"U","NORAD_CAT_ID":55324,"ELEMENT_SET_NO":999,"REV_AT_EPOCH":17161,"BSTAR":0.00033045,"MEAN_MOTION_DOT":7.47e-5,"MEAN_MOTION_DDOT":0},{"OBJECT_NAME":"HAWK-6C","OBJECT_ID":"2023-011C","EPOCH":"2026-03-02T14:02:43.573056","MEAN_MOTION":15.21782056,"ECCENTRICITY":0.0003499,"INCLINATION":40.4813,"RA_OF_ASC_NODE":250.2265,"ARG_OF_PERICENTER":327.3954,"MEAN_ANOMALY":32.6638,"EPHEMERIS_TYPE":0,"CLASSIFICATION_TYPE":"U","NORAD_CAT_ID":55326,"ELEMENT_SET_NO":999,"REV_AT_EPOCH":17160,"BSTAR":0.00033292,"MEAN_MOTION_DOT":7.526e-5,"MEAN_MOTION_DDOT":0},{"OBJECT_NAME":"HAWK-6A","OBJECT_ID":"2023-011D","EPOCH":"2026-03-02T17:11:45.249216","MEAN_MOTION":15.21787693,"ECCENTRICITY":0.0003184,"INCLINATION":40.4968,"RA_OF_ASC_NODE":251.0615,"ARG_OF_PERICENTER":326.8974,"MEAN_ANOMALY":33.1636,"EPHEMERIS_TYPE":0,"CLASSIFICATION_TYPE":"U","NORAD_CAT_ID":55327,"ELEMENT_SET_NO":999,"REV_AT_EPOCH":17162,"BSTAR":0.00033558,"MEAN_MOTION_DOT":7.589e-5,"MEAN_MOTION_DDOT":0}]
