FLYING LAPTOP           
1 42831U 17042G   26061.84261507  .00006380  00000+0  50945-3 0  9992
2 42831  97.4246 221.8228 0018412 117.7950 242.5143 15.00464126470509
HAWK-A                  
1 43765U 18099H   26061.71262923  .00008442  00000+0  35514-3 0  9997
2 43765  97.4069 115.3721 0034504 301.2229  58.5628 15.23092893396887
HAWK-B                  
1 43794U 18099AN  26061.67682961  .00008177  00000+0  36248-3 0  9992
2 43794  97.4120 114.9650 0031806 319.1981  40.6873 15.21407140396830
HAWK-C                  
1 43799U 18099AT  26061.72338813  .00010067  00000+0  38218-3 0  9997
2 43799  97.4047 115.7945 0040679 302.9962  56.7369 15.26246105397663
SALSAT                  
1 46495U 20068K   26061.53547552  .00011172  00000+0  41124-3 0  9991
2 46495  97.8844  58.2509 0008864 326.6723  33.3956 15.28007427299065
HAWK-2C                 
1 47502U 21006CT  26061.69265526  .00008304  00000+0  26142-3 0  9995
2 47502  97.2433 108.1543 0006183 210.2299 149.8588 15.33159460283174
HAWK-2A                 
1 47505U 21006CW  26061.69624741  .00014484  00000+0  45363-3 0  9998
2 47505  97.2474 108.7722 0005782 213.3721 146.7158 15.33179969283170
HAWK-2B                 
1 47508U 21006CZ  26061.69299307  .00008413  00000+0  26490-3 0  9992
2 47508  97.2347 107.2797 0006326 211.7104 148.3758 15.33150980283176
HAWK-3B                 
1 48931U 21059BE  26061.49961074  .00042630  00000+0  50900-3 0  9998
2 48931  97.6714 248.7912 0005450   5.4749 354.6566 15.60911280261161
HAWK-3C                 
1 48948U 21059BX  26061.49937551  .00040639  00000+0  48557-3 0  9991
2 48948  97.6863 254.2757 0005929   7.2047 352.9293 15.60899717261163
HAWK-3A                 
1 48957U 21059CG  26061.49920514  .00042021  00000+0  50195-3 0  9990
2 48957  97.6799 251.5704 0005546   5.6057 354.5261 15.60902715261167
HAWK-5C                 
1 52754U 22057Y   26061.41665012  .00023449  00000+0  46310-3 0  9997
2 52754  97.6438 214.6383 0005648  99.2690 260.9198 15.47142312209812
HAWK-5B                 
1 52756U 22057AA  26061.41652216  .00024236  00000+0  47849-3 0  9994
2 52756  97.6439 212.9781 0005630  94.2107 265.9786 15.47145421209819
HAWK-5A                 
1 52757U 22057AB  26061.67494864  .00023218  00000+0  45834-3 0  9997
2 52757  97.6441 214.0848 0006045  95.8438 264.3500 15.47153824209852
HAWK-6B                 
1 55324U 23011A   26061.71708271  .00007470  00000+0  33045-3 0  9999
2 55324  40.5117 252.5747 0003124 340.1039  19.9648 15.21791377171617
HAWK-6C                 
1 55326U 23011C   26061.58522654  .00007526  00000+0  33292-3 0  9991
2 55326  40.4813 250.2265 0003499 327.3954  32.6638 15.21782056171603
HAWK-6A                 
1 55327U 23011D   26061.71649594  .00007589  00000+0  33558-3 0  9994
2 55327  40.4968 251.0615 0003184 326.8974  33.1636 15.21787693171628
